STARLINK-32433          
1 61852U 24202H   26068.50936657  .00000042  00000+0  11060-4 0  9992
2 61852  43.0024 238.6988 0001786 285.7681  74.2974 15.27567455 75316
COSMOS 2588             
1 64095U 25109A   26068.81179522  .00009169  00000+0  32611-3 0  9998
2 64095  72.9704  73.5401 0005019 308.6780  51.3966 15.29122656 44425
